ORBCOMM FM33            
1 25983U 99065D   25230.80754949  .00000680  00000+0  25828-3 0  9995
2 25983  45.0290  61.2149 0008281  22.3013 337.8195 14.40103140345097
ORBCOMM FM36            
1 25984U 99065E   25230.15946690  .00001050  00000+0  38883-3 0  9997
2 25984  45.0386 157.1815 0003816 283.3710  76.6713 14.38242489343348
ORBCOMM FM35            
1 25985U 99065F   25230.87892144  .00000870  00000+0  33681-3 0  9991
2 25985  45.0389 159.3043 0005431 343.9101  16.1574 14.37203562343804
ORBCOMM FM34            
1 25986U 99065G   25231.05268306  .00000738  00000+0  29292-3 0  9996
2 25986  45.0385 158.9395 0005480 309.3189  50.7173 14.37213660343980
ORBCOMM FM38            
1 33060U 08031A   25231.47896649  .00001539  00000+0  22130-3 0  9998
2 33060  48.4419  13.5765 0005229 306.1526  53.8905 14.81524954924123
ORBCOMM FM41            
1 33061U 08031B   25231.50598631  .00001443  00000+0  21115-3 0  9999
2 33061  48.4455  21.4461 0004557 290.6917 100.6377 14.81100898924063
ORBCOMM FM29            
1 33062U 08031C   25230.74040030  .00001565  00000+0  22616-3 0  9992
2 33062  48.4404  32.8255 0006200 289.2086  84.4338 14.81207863923428
ORBCOMM FM39            
1 33063U 08031D   25230.89785040  .00001253  00000+0  19295-3 0  9999
2 33063  48.4410  57.0403 0007145 263.8760  96.1341 14.79736924923084
